{
  "norad_id": 59661,
  "name": "STARLINK-31880",
  "history": [
    {
      "epoch": "2026-03-28T13:53:01.878144Z",
      "apogee_km": 484.11850017222423,
      "perigee_km": 481.9531140343024,
      "latitude_deg": 1.1429433275440054e-05,
      "longitude_deg": -102.73183887864641,
      "height_km": 482.6963375352173,
      "semi_major_axis_km": 6861.172807103263,
      "eccentricity": 0.0001578,
      "inclination_deg": 43.0021,
      "raan_deg": 291.5229,
      "arg_perigee_deg": 276.1802,
      "mean_anomaly_deg": 83.887,
      "mean_motion_rev_day": 15.27584438
    },
    {
      "epoch": "2026-03-29T21:16:10.289280Z",
      "apogee_km": 484.324389004405,
      "perigee_km": 481.8184012501688,
      "latitude_deg": 3.236462553030418e-06,
      "longitude_deg": 137.8069426151126,
      "height_km": 482.6497468321234,
      "semi_major_axis_km": 6861.208395127287,
      "eccentricity": 0.00018262,
      "inclination_deg": 43.0009,
      "raan_deg": 284.1357,
      "arg_perigee_deg": 279.1292,
      "mean_anomaly_deg": 80.9353,
      "mean_motion_rev_day": 15.27572553
    },
    {
      "epoch": "2026-03-30T12:57:44.316864Z",
      "apogee_km": 484.317198331757,
      "perigee_km": 481.8279514979786,
      "latitude_deg": 6.357673457248571e-05,
      "longitude_deg": -101.92135375786684,
      "height_km": 482.5692348393045,
      "semi_major_axis_km": 6861.2095749148675,
      "eccentricity": 0.0001814,
      "inclination_deg": 43.003,
      "raan_deg": 280.4436,
      "arg_perigee_deg": 283.0343,
      "mean_anomaly_deg": 77.0307,
      "mean_motion_rev_day": 15.27572159
    },
    {
      "epoch": "2026-03-30T22:22:39.988992Z",
      "apogee_km": 484.1549245470924,
      "perigee_km": 481.9306672808534,
      "latitude_deg": 1.934539371263523e-05,
      "longitude_deg": 114.24385294472506,
      "height_km": 482.5422624130814,
      "semi_major_axis_km": 6861.179795913973,
      "eccentricity": 0.00016209,
      "inclination_deg": 43.0022,
      "raan_deg": 278.2275,
      "arg_perigee_deg": 284.4575,
      "mean_anomaly_deg": 75.6097,
      "mean_motion_rev_day": 15.27582104
    },
    {
      "epoch": "2026-03-31T18:46:42.263040Z",
      "apogee_km": 484.0464512213448,
      "perigee_km": 482.06768285241105,
      "latitude_deg": -3.5614480290324104e-06,
      "longitude_deg": 162.59573032198452,
      "height_km": 482.59937752453925,
      "semi_major_axis_km": 6861.194067036878,
      "eccentricity": 0.0001442,
      "inclination_deg": 43.0019,
      "raan_deg": 273.4267,
      "arg_perigee_deg": 283.7187,
      "mean_anomaly_deg": 76.3504,
      "mean_motion_rev_day": 15.27577338
    }
  ]
}